ONEWEB-0268             
1 48986U 21060V   22177.41477727  .00000040  00000+0  70947-4 0  9996
2 48986  87.9125 157.7752 0001966  81.2437 278.8917 13.16597245 50112
ONEWEB-0269             
1 48987U 21060W   22177.47237456  .00000118  00000+0  27472-3 0  9996
2 48987  87.9114 157.7935 0001984  83.5025 276.6332 13.16596319 49905
ONEWEB-0270             
1 48988U 21060X   22177.48848952  .00000044  00000+0  82283-4 0  9997
2 48988  87.9129 157.7674 0002096  94.1060 266.0310 13.16595551 49955
ONEWEB-0271             
1 48989U 21060Y   22176.86898542  .00000090  00000+0  20225-3 0  9997
2 48989  87.9098 157.8835 0001589 101.0033 259.1277 13.16596594 48564
ONEWEB-0272             
1 48990U 21060Z   22176.89200455  .00000011  00000+0 -46079-5 0  9993
2 48990  87.9119 157.8851 0001571  91.5340 268.5971 13.16596140 48510
ONEWEB-0273             
1 48991U 21060AA  22176.68475968 -.00000065  00000+0 -20394-3 0  9994
2 48991  87.9126 157.9245 0001886  94.8561 265.2785 13.16593480 48462
ONEWEB-0274             
1 48992U 21060AB  22177.47005974  .00000092  00000+0  20586-3 0  9990
2 48992  87.9095 157.7872 0001663  98.1540 261.9779 13.16594519 49909
ONEWEB-0275             
1 48993U 21060AC  22176.85056099  .00000051  00000+0  99598-4 0  9991
2 48993  87.9111 157.8932 0001892  91.6728 268.4620 13.16597374 48455
ONEWEB-0276             
1 48994U 21060AD  22177.49310162  .00000201  00000+0  49335-3 0  9997
2 48994  87.9106 157.8142 0001810 101.3934 258.7400 13.16595389 49858
ONEWEB-0277             
1 48995U 21060AE  22177.50690509  .00000012  00000+0 -27568-5 0  9993
2 48995  87.9105 157.8129 0001485 103.8120 256.3176 13.16595616 49830
ONEWEB-0278             
1 48996U 21060AF  22177.19139773  .00000021  00000+0  22513-4 0  9993
2 48996  87.9161 157.7934 0001931  91.6297 268.5055 13.16592818 49945
ONEWEB-0279             
1 48997U 21060AG  22176.89662849  .00000016  00000+0  94340-5 0  9997
2 48997  87.9125 157.8791 0002115  85.6783 274.4589 13.16592096 48525
ONEWEB-0280             
1 48998U 21060AH  22176.68245865 -.00000048  00000+0 -15846-3 0  9999
2 48998  87.9119 157.9414 0001251 113.2277 246.8985 13.16594615 48430
ONEWEB-0281             
1 48999U 21060AJ  22176.91736253  .00000015  00000+0  66335-5 0  9995
2 48999  87.9133 157.8639 0001913  76.9876 283.1468 13.16594823 48532
ONEWEB-0282             
1 49000U 21060AK  22176.87130560  .00000035  00000+0  57717-4 0  9998
2 49000  87.9109 157.9197 0001843 101.1935 258.9403 13.16593465 48505
ONEWEB-0283             
1 49001U 21060AL  22177.46776153  .00000140  00000+0  33387-3 0  9992
2 49001  87.9103 157.7970 0001620  94.7799 265.3517 13.16594562 49918
ONEWEB-0284             
1 49002U 21060AM  22177.46085225  .00000100  00000+0  22909-3 0  9990
2 49002  87.9122 157.8125 0001918  99.6669 260.4679 13.16595118 49882
ONEWEB-0285             
1 49075U 21075A   22177.20286154  .00000388  00000+0  10436-2 0  9991
2 49075  87.8867 279.2439 0001823 105.7749 254.3581 13.12440611 45734
ONEWEB-0286             
1 49076U 21075B   22176.78992564 -.00000132  00000+0 -40228-3 0  9995
2 49076  87.8852 279.2886 0002052  83.9418 276.1944 13.12446875 44057
ONEWEB-0287             
1 49077U 21075C   22176.82042268 -.00000306  00000+0 -82217-3 0  9995
2 49077  87.9078 294.5655 0002325 104.8314 255.3075 13.17648604 43337
ONEWEB-0288             
1 49078U 21075D   22176.85131859 -.00000408  00000+0 -11695-2 0  9998
2 49078  87.8756 279.3072 0002103  93.7889 266.3480 13.12444399 44682
ONEWEB-0289             
1 49079U 21075E   22176.83904060  .00000004  00000+0 -22962-4 0  9991
2 49079  87.9082 294.5313 0001864  94.8086 265.3258 13.17650227 42940
ONEWEB-0290             
1 49080U 21075F   22176.82663152 -.00000004  00000+0 -42958-4 0  9994
2 49080  87.9072 294.5640 0002227 108.3273 251.8101 13.17650122 42353
ONEWEB-0291             
1 49081U 21075G   22176.89173659  .00000979  00000+0  24876-2 0  9996
2 49081  87.9071 294.5494 0002258 103.8245 256.3137 13.17649216 42354
ONEWEB-0293             
1 49082U 21075H   22176.83282131  .00000010  00000+0 -84212-5 0  9997
2 49082  87.9082 294.5301 0002289 106.9608 253.1775 13.17651188 42371
ONEWEB-0294             
1 49083U 21075J   22176.78038616 -.00000388  00000+0 -11127-2 0  9990
2 49083  87.8832 279.2962 0002297 112.4589 247.6783 13.12443487 44067
ONEWEB-0295             
1 49084U 21075K   22176.83439236 -.00000002  00000+0 -37265-4 0  9996
2 49084  87.9072 294.4979 0002696  98.8708 261.2729 13.17647529 42333
ONEWEB-0296             
1 49085U 21075L   22176.84075649 -.00000292  00000+0 -84738-3 0  9999
2 49085  87.8890 279.2686 0003098  93.9154 266.2329 13.12447343 44076
ONEWEB-0297             
1 49086U 21075M   22176.79414527  .00000001  00000+0 -33512-4 0  9998
2 49086  87.8858 279.3347 0001589  90.7085 269.4225 13.12442554 44672
ONEWEB-0298             
1 49087U 21075N   22176.83593300 -.00000015  00000+0 -70622-4 0  9990
2 49087  87.9089 294.5088 0002085  87.1138 273.0232 13.17653968 42363
ONEWEB-0299             
1 49088U 21075P   22176.83748123 -.00000116  00000+0 -33120-3 0  9999
2 49088  87.9080 294.4597 0002101  95.6384 264.4987 13.17649200 42348
ONEWEB-0300             
1 49089U 21075Q   22176.78569908 -.00000408  00000+0 -11691-2 0  9998
2 49089  87.8881 279.2780 0001826  94.3348 265.7989 13.12438781 44692
ONEWEB-0301             
1 49090U 21075R   22176.84706823 -.00000398  00000+0 -11412-2 0  9995
2 49090  87.8895 279.2723 0001615 103.2428 256.8880 13.12445199 44064
ONEWEB-0302             
1 49091U 21075S   22177.21663098  .00000010  00000+0 -78183-5 0  9995
2 49091  87.8903 279.1965 0002190  99.8136 260.3240 13.12441315 45097
ONEWEB-0304             
1 49092U 21075T   22176.82198955 -.00001039  00000+0 -27090-2 0  9998
2 49092  87.9070 294.5281 0001950  98.2850 261.8503 13.17655460 42318
ONEWEB-0305             
1 49093U 21075U   22176.89018189  .00000034  00000+0  54435-4 0  9993
2 49093  87.9077 294.5576 0002303  91.3130 268.8265 13.17649585 42358
ONEWEB-0308             
1 49094U 21075V   22177.21132937  .00000163  00000+0  41653-3 0  9999
2 49094  87.8891 279.1974 0001811 100.7278 259.4055 13.12444833 45107
ONEWEB-0309             
1 49095U 21075W   22176.81888825 -.00000018  00000+0 -78817-4 0  9993
2 49095  87.9083 294.5719 0002320 114.9589 245.1784 13.17650914 42313
ONEWEB-0310             
1 49096U 21075X   22176.84283112 -.00000299  00000+0 -86730-3 0  9998
2 49096  87.8859 279.3455 0002250 107.9176 252.2198 13.12444753 44685
ONEWEB-0311             
1 49097U 21075Y   22176.82352159 -.00000338  00000+0 -90251-3 0  9992
2 49097  87.9080 294.5738 0002129  87.9887 272.1489 13.17648649 42369
ONEWEB-0312             
1 49098U 21075Z   22177.05910724 -.00000037  00000+0 -12970-3 0  9995
2 49098  87.9095 294.4791 0002391 100.8996 259.2405 13.17646951 43359
ONEWEB-0313             
1 49099U 21075AA  22176.81732575 -.00000042  00000+0 -14064-3 0  9997
2 49099  87.9081 294.5749 0002488 100.5073 259.6339 13.17646231 42337
ONEWEB-0314             
1 49100U 21075AB  22176.88862540  .00000022  00000+0  23317-4 0  9991
2 49100  87.9084 294.5561 0002432  99.7788 260.3618 13.17650510 42318
ONEWEB-0315             
1 49101U 21075AC  22176.81323140  .00000427  00000+0  11512-2 0  9994
2 49101  87.8763 279.3128 0002098  91.1482 268.9887 13.12444569 44669
ONEWEB-0316             
1 49102U 21075AD  22177.58335648  .00000013  00000+0  00000+0 0  9994
2 49102  87.9551 263.8826 0016768 287.7485 284.7558 13.40782521 46885
ONEWEB-0317             
1 49103U 21075AE  22177.57136647  .00000368  00000+0  98688-3 0  9998
2 49103  87.8855 279.1628 0002213 107.0378 253.0993 13.12442014 45775
ONEWEB-0318             
1 49104U 21075AF  22177.58335648 -.00003459  00000+0 -71704-2 0  9997
2 49104  87.9647 263.8630 0015415 295.0483 133.5340 13.32412225 46820
ONEWEB-0319             
1 49105U 21075AG  22176.82509268 -.00000025  00000+0 -96570-4 0  9991
2 49105  87.9080 294.5337 0002303  78.0958 282.0432 13.17648291 42347
ONEWEB-0323             
1 49106U 21075AH  22176.79945787  .00000223  00000+0  58571-3 0  9994
2 49106  87.8905 279.2722 0002063  93.9445 266.1919 13.12443875 44049
ONEWEB-0329             
1 49107U 21075AJ  22176.82819325 -.00000017  00000+0 -77446-4 0  9993
2 49107  87.9081 294.5329 0002295  97.5531 262.5861 13.17647559 42327
ONEWEB-0330             
1 49108U 21075AK  22176.82974452 -.00000007  00000+0 -51577-4 0  9993
2 49108  87.9084 294.5499 0002169 100.1759 259.9617 13.17650208 42360
ONEWEB-0292             
1 49186U 21083A   22176.76159050 -.00000298  00000+0 -85174-3 0  9991
2 49186  87.8978 248.7646 0001932  95.5793 264.5556 13.13468494 40265
ONEWEB-0303             
1 49187U 21083B   22176.79855294  .00000013  00000+0  33299-6 0  9995
2 49187  87.9136 264.0376 0002269  93.7348 266.4044 13.18685599 39841
ONEWEB-0306             
1 49188U 21083C   22177.47524828  .00000018  00000+0  11963-4 0  9995
2 49188  87.9141 263.8920 0002125  83.1290 277.0084 13.18687811 39975
ONEWEB-0307             
1 49189U 21083D   22176.90948887 -.00000204  00000+0 -59416-3 0  9991
2 49189  87.8978 248.7336 0002100  95.2495 264.8874 13.13465915 40281
ONEWEB-0320             
1 49190U 21083E   22176.79701456  .00000015  00000+0  51768-5 0  9991
2 49190  87.9138 264.0456 0002165 107.8376 252.2993 13.18685678 38561
ONEWEB-0321             
1 49191U 21083F   22177.25001157 -.00054204  00000+0 -56404-2 0  9995
2 49191  87.2088 227.4374 0004561  65.9621 262.1182 14.90258834 43747
ONEWEB-0322             
1 49192U 21083G   22176.90497077 -.00000108  00000+0 -32964-3 0  9997
2 49192  87.8960 248.7336 0002225 114.1707 245.9655 13.13470924 40273
ONEWEB-0324             
1 49193U 21083H   22177.16553272 -.00003463  00000+0 -88192-2 0  9997
2 49193  87.9131 263.9666 0002490  88.6933 271.4484 13.18701310 39914
